BEIJING 1               
1 28890U 05043A   21119.16416204  .00000034  00000-0  16135-4 0  9994
2 28890  98.0684 245.4655 0016025  37.3665 322.8652 14.61329025826624
HJ-1A                   
1 33320U 08041A   21119.07851799 -.00000167  00000-0 -16541-4 0  9991
2 33320  97.7412 165.3236 0027855 119.2712 241.1161 14.77138513681190
HJ-1B                   
1 33321U 08041B   21119.10116779  .00000224  00000-0  38215-4 0  9992
2 33321  97.7488 168.0531 0035322 153.3478 206.9575 14.77359325681204
YAOGAN 4                
1 33446U 08061A   21119.09652584  .00000100  00000-0  21062-4 0  9994
2 33446  97.7714  68.1797 0017255  40.7391 319.5107 14.77088852668421
DEIMOS-1                
1 35681U 09041A   21119.13518995  .00000129  00000-0  28030-4 0  9991
2 35681  97.7674 345.2634 0002964 104.6724 255.4812 14.71888061630827
UK-DMC 2                
1 35683U 09041C   21119.17384775  .00000126  00000-0  27799-4 0  9992
2 35683  97.6859 310.2500 0001632 103.4657 256.6722 14.71203711630590
RISAT 1                 
1 38248U 12017A   21119.09166439  .00000733  00000-0  48419-4 0  9991
2 38248  97.5625 130.4476 0002814 227.4432 132.6560 15.10461648496272
DMC3-FM1                
1 40715U 15032A   21119.17995872  .00000046  00000-0  14703-4 0  9999
2 40715  97.8993  11.2358 0014295 293.7863  66.1854 14.73699687312155
DMC3-FM2                
1 40716U 15032B   21119.13391487 -.00003122  00000-0 -47115-3 0  9990
2 40716  97.9021  11.6584 0011659 305.6380  54.3805 14.73651039312156
DMC3-FM3                
1 40717U 15032C   21119.22458017  .00000047  00000-0  14790-4 0  9999
2 40717  97.9041  12.5259 0015276 295.0650  64.8979 14.73701754312168
